{
  "links" : {
    "next" : "https://api.nasa.gov/neo/rest/v1/feed?start_date=2015-10-09&end_date=2015-10-09&detailed=true&api_key=t0TVs3DtDT2H8Oy2Zy8m2eVrNsAVKAexjcZXUckd",
    "prev" : "https://api.nasa.gov/neo/rest/v1/feed?start_date=2015-10-07&end_date=2015-10-07&detailed=true&api_key=t0TVs3DtDT2H8Oy2Zy8m2eVrNsAVKAexjcZXUckd",
    "self" : "https://api.nasa.gov/neo/rest/v1/feed?start_date=2015-10-08&end_date=2015-10-08&detailed=true&api_key=t0TVs3DtDT2H8Oy2Zy8m2eVrNsAVKAexjcZXUckd"
  },
  "element_count" : 12,
  "near_earth_objects" : {
    "2015-10-08" : [ {
      "links" : {
        "self" : "https://api.nasa.gov/neo/rest/v1/neo/2085770?api_key=t0TVs3DtDT2H8Oy2Zy8m2eVrNsAVKAexjcZXUckd"
      },
      "neo_reference_id" : "2085770",
      "name" : "85770 (1998 UP1)",
      "nasa_jpl_url" : "http://ssd.jpl.nasa.gov/sbdb.cgi?sstr=2085770",
      "absolute_magnitude_h" : 20.5,
      "estimated_diameter" : {
        "kilometers" : {
          "estimated_diameter_min" : 0.2111324448,
          "estimated_diameter_max" : 0.4721064988
        },
        "meters" : {
          "estimated_diameter_min" : 211.1324447897,
          "estimated_diameter_max" : 472.1064988055
        },
        "miles" : {
          "estimated_diameter_min" : 0.1311915784,
          "estimated_diameter_max" : 0.2933532873
        },
        "feet" : {
          "estimated_diameter_min" : 692.6917701639,
          "estimated_diameter_max" : 1548.9058855411
        }
      },
      "is_potentially_hazardous_asteroid" : false,
      "close_approach_data" : [ {
        "close_approach_date" : "2015-10-08",
        "epoch_date_close_approach" : 1444287600000,
        "relative_velocity" : {
          "kilometers_per_second" : "16.6666530892",
          "kilometers_per_hour" : "59999.951121296",
          "miles_per_hour" : "37281.6362953409"
        },
        "miss_distance" : {
          "astronomical" : "0.2495187608",
          "lunar" : "97.0627975464",
          "kilometers" : "37327476",
          "miles" : "23194218"
        },
        "orbiting_body" : "Earth"
      } ],
      "orbital_data" : {
        "orbit_id" : "96",
        "orbit_determination_date" : "2017-07-31 10:56:51",
        "orbit_uncertainty" : "0",
        "minimum_orbit_intersection" : ".0828979",
        "jupiter_tisserand_invariant" : "5.898",
        "epoch_osculation" : "2453883.5",
        "eccentricity" : ".3449432374913885",
        "semi_major_axis" : ".9987442710924688",
        "inclination" : "33.17788267128009",
        "ascending_node_longitude" : "18.40505380852373",
        "orbital_period" : "364.5691188866466",
        "perihelion_distance" : ".6542341887958556",
        "perihelion_argument" : "234.3772767052214",
        "aphelion_distance" : "1.343254353389082",
        "perihelion_time" : "2453924.809816898250",
        "mean_anomaly" : "319.2079161043974",
        "mean_motion" : ".9874670709888972",
        "equinox" : "J2000"
      }
    }, {
      "links" : {
        "self" : "https://api.nasa.gov/neo/rest/v1/neo/3730338?api_key=t0TVs3DtDT2H8Oy2Zy8m2eVrNsAVKAexjcZXUckd"
      },
      "neo_reference_id" : "3730338",
      "name" : "(2015 TP178)",
      "nasa_jpl_url" : "http://ssd.jpl.nasa.gov/sbdb.cgi?sstr=3730338",
      "absolute_magnitude_h" : 23.6,
      "estimated_diameter" : {
        "kilometers" : {
          "estimated_diameter_min" : 0.0506471459,
          "estimated_diameter_max" : 0.1132504611
        },
        "meters" : {
          "estimated_diameter_min" : 50.6471458835,
          "estimated_diameter_max" : 113.2504610618
        },
        "miles" : {
          "estimated_diameter_min" : 0.0314706677,
          "estimated_diameter_max" : 0.0703705522
        },
        "feet" : {
          "estimated_diameter_min" : 166.1651821003,
          "estimated_diameter_max" : 371.5566426699
        }
      },
      "is_potentially_hazardous_asteroid" : false,
      "close_approach_data" : [ {
        "close_approach_date" : "2015-10-08",
        "epoch_date_close_approach" : 1444287600000,
        "relative_velocity" : {
          "kilometers_per_second" : "7.2906596949",
          "kilometers_per_hour" : "26246.3749016784",
          "miles_per_hour" : "16308.4766715457"
        },
        "miss_distance" : {
          "astronomical" : "0.3008422779",
          "lunar" : "117.0276489258",
          "kilometers" : "45005364",
          "miles" : "27965038"
        },
        "orbiting_body" : "Earth"
      } ],
      "orbital_data" : {
        "orbit_id" : "3",
        "orbit_determination_date" : "2017-04-06 17:20:28",
        "orbit_uncertainty" : "9",
        "minimum_orbit_intersection" : ".299008",
        "jupiter_tisserand_invariant" : "2.900",
        "epoch_osculation" : "2457307.5",
        "eccentricity" : ".5831434098984647",
        "semi_major_axis" : "3.113415587364152",
        "inclination" : "12.09175642692112",
        "ascending_node_longitude" : "15.88150985360284",
        "orbital_period" : "2006.568868386179",
        "perihelion_distance" : "1.297847805317589",
        "perihelion_argument" : "1.262054943383318",
        "aphelion_distance" : "4.928983369410715",
        "perihelion_time" : "2457308.498402180527",
        "mean_anomaly" : "359.8208759287296",
        "mean_motion" : ".1794107372400015",
        "equinox" : "J2000"
      }
    }, {
      "links" : {
        "self" : "https://api.nasa.gov/neo/rest/v1/neo/3092248?api_key=t0TVs3DtDT2H8Oy2Zy8m2eVrNsAVKAexjcZXUckd"
      },
      "neo_reference_id" : "3092248",
      "name" : "(2000 AH205)",
      "nasa_jpl_url" : "http://ssd.jpl.nasa.gov/sbdb.cgi?sstr=3092248",
      "absolute_magnitude_h" : 22.5,
      "estimated_diameter" : {
        "kilometers" : {
          "estimated_diameter_min" : 0.0840533402,
          "estimated_diameter_max" : 0.1879489824
        },
        "meters" : {
          "estimated_diameter_min" : 84.0533402073,
          "estimated_diameter_max" : 187.9489824394
        },
        "miles" : {
          "estimated_diameter_min" : 0.0522283081,
          "estimated_diameter_max" : 0.1167860472
        },
        "feet" : {
          "estimated_diameter_min" : 275.7655606856,
          "estimated_diameter_max" : 616.6305395464
        }
      },
      "is_potentially_hazardous_asteroid" : false,
      "close_approach_data" : [ {
        "close_approach_date" : "2015-10-08",
        "epoch_date_close_approach" : 1444287600000,
        "relative_velocity" : {
          "kilometers_per_second" : "12.9294090495",
          "kilometers_per_hour" : "46545.8725780492",
          "miles_per_hour" : "28921.7951027328"
        },
        "miss_distance" : {
          "astronomical" : "0.3189677275",
          "lunar" : "124.0784454346",
          "kilometers" : "47716892",
          "miles" : "29649904"
        },
        "orbiting_body" : "Earth"
      } ],
      "orbital_data" : {
        "orbit_id" : "16",
        "orbit_determination_date" : "2017-04-06 09:17:09",
        "orbit_uncertainty" : "2",
        "minimum_orbit_intersection" : ".0152025",
        "jupiter_tisserand_invariant" : "5.404",
        "epoch_osculation" : "2458000.5",
        "eccentricity" : ".4058593439223195",
        "semi_major_axis" : "1.144277201711834",
        "inclination" : "2.584798951339495",
        "ascending_node_longitude" : "248.1088845400532",
        "orbital_period" : "447.0903485528543",
        "perihelion_distance" : ".6798616073598015",
        "perihelion_argument" : "117.823696692513",
        "aphelion_distance" : "1.608692796063867",
        "perihelion_time" : "2458192.752773786300",
        "mean_anomaly" : "205.1968404437924",
        "mean_motion" : ".8052063775593702",
        "equinox" : "J2000"
      }
    } ]
  }
}